start=new Date('2022-06-22T00:00:00.000Z').valueOf();
sats=[{"TIME_SYSTEM":"UTC","DECAY_DATE":null,"PERIAPSIS":"348.195","APOAPSIS":"351.172","BSTAR":"-0.00048771000000","OBJECT_NAME":"STARLINK-3971","REF_FRAME":"TEME","MEAN_MOTION_DDOT":"0.0000000000000","REV_AT_EPOCH":"130","MEAN_MOTION_DOT":"-0.00068600","GP_ID":"206584438","CENTER_NAME":"EARTH","ARG_OF_PERICENTER":"24.3516","COUNTRY_CODE":"US","SITE":"AFETR","EPHEMERIS_TYPE":"0","MEAN_ELEMENT_THEORY":"SGP4","ECCENTRICITY":"0.00022120","OBJECT_ID":"2022-052AW","FILE":"3499203","LAUNCH_DATE":"2022-05-14","CLASSIFICATION_TYPE":"U","TLE_LINE1":"1 52642U 22052AW  22172.91667824 -.00068600  00000-0 -48771-3 0  9999","SEMIMAJOR_AXIS":"6727.818","NORAD_CAT_ID":"52642","INCLINATION":"53.2141","RA_OF_ASC_NODE":"251.1264","RCS_SIZE":"LARGE","OBJECT_TYPE":"PAYLOAD","MEAN_ANOMALY":"312.7852","EPOCH":"2022-06-21T22:00:00.999936","MEAN_MOTION":"15.73226908","TLE_LINE2":"2 52642  53.2141 251.1264 0002212  24.3516 312.7852 15.73226908  1301","ELEMENT_SET_NO":"999","PERIOD":"91.532"},{"SITE":"AFETR","ARG_OF_PERICENTER":"25.8988","COUNTRY_CODE":"US","EPHEMERIS_TYPE":"0","MEAN_ELEMENT_THEORY":"SGP4","MEAN_MOTION_DDOT":"0.0000000000000","MEAN_MOTION_DOT":"-0.00030963","REV_AT_EPOCH":"130","REF_FRAME":"TEME","CENTER_NAME":"EARTH","GP_ID":"206584874","TIME_SYSTEM":"UTC","BSTAR":"-0.00021703000000","OBJECT_NAME":"STARLINK-3963","PERIAPSIS":"348.226","DECAY_DATE":null,"APOAPSIS":"351.336","TLE_LINE2":"2 52643  53.2140 251.1185 0002311  25.8988 314.9020 15.73192756  1306","MEAN_MOTION":"15.73192756","PERIOD":"91.534","ELEMENT_SET_NO":"999","INCLINATION":"53.2140","RA_OF_ASC_NODE":"251.1185","OBJECT_TYPE":"PAYLOAD","RCS_SIZE":"LARGE","SEMIMAJOR_AXIS":"6727.916","NORAD_CAT_ID":"52643","MEAN_ANOMALY":"314.9020","EPOCH":"2022-06-21T22:00:00.999936","CLASSIFICATION_TYPE":"U","TLE_LINE1":"1 52643U 22052AX  22172.91667824 -.00030963  00000-0 -21703-3 0  9997","ECCENTRICITY":"0.00023110","OBJECT_ID":"2022-052AX","LAUNCH_DATE":"2022-05-14","FILE":"3499203"},{"SITE":"AFETR","ARG_OF_PERICENTER":"15.7864","COUNTRY_CODE":"US","EPHEMERIS_TYPE":"0","MEAN_ELEMENT_THEORY":"SGP4","MEAN_MOTION_DDOT":"0.0000000000000","REV_AT_EPOCH":"130","MEAN_MOTION_DOT":"-0.00076850","REF_FRAME":"TEME","CENTER_NAME":"EARTH","GP_ID":"206584346","TIME_SYSTEM":"UTC","BSTAR":"-0.00054695000000","OBJECT_NAME":"STARLINK-3985","PERIAPSIS":"347.926","DECAY_DATE":null,"APOAPSIS":"351.333","TLE_LINE2":"2 52644  53.2125 251.1248 0002532  15.7864 321.9746 15.73245942  1305","MEAN_MOTION":"15.73245942","PERIOD":"91.531","ELEMENT_SET_NO":"999","INCLINATION":"53.2125","RA_OF_ASC_NODE":"251.1248","OBJECT_TYPE":"PAYLOAD","RCS_SIZE":"LARGE","SEMIMAJOR_AXIS":"6727.764","NORAD_CAT_ID":"52644","MEAN_ANOMALY":"321.9746","EPOCH":"2022-06-21T22:00:00.999936","CLASSIFICATION_TYPE":"U","TLE_LINE1":"1 52644U 22052AY  22172.91667824 -.00076850  00000-0 -54695-3 0  9999","ECCENTRICITY":"0.00025320","OBJECT_ID":"2022-052AY","LAUNCH_DATE":"2022-05-14","FILE":"3499203"},{"EPOCH":"2022-06-21T22:00:00.999936","MEAN_ANOMALY":"319.6717","SEMIMAJOR_AXIS":"6727.994","NORAD_CAT_ID":"52645","OBJECT_TYPE":"PAYLOAD","RCS_SIZE":"LARGE","INCLINATION":"53.2138","RA_OF_ASC_NODE":"251.1166","ELEMENT_SET_NO":"999","PERIOD":"91.535","TLE_LINE2":"2 52645  53.2138 251.1166 0002421  21.7015 319.6717 15.73165494  1306","MEAN_MOTION":"15.73165494","FILE":"3499203","LAUNCH_DATE":"2022-05-14","OBJECT_ID":"2022-052AZ","ECCENTRICITY":"0.00024210","TLE_LINE1":"1 52645U 22052AZ  22172.91667824  .00017911  00000-0  13195-3 0  9991","CLASSIFICATION_TYPE":"U","GP_ID":"206585040","CENTER_NAME":"EARTH","REF_FRAME":"TEME","REV_AT_EPOCH":"130","MEAN_MOTION_DOT":"0.00017911","MEAN_MOTION_DDOT":"0.0000000000000","MEAN_ELEMENT_THEORY":"SGP4","EPHEMERIS_TYPE":"0","COUNTRY_CODE":"US","ARG_OF_PERICENTER":"21.7015","SITE":"AFETR","DECAY_DATE":null,"PERIAPSIS":"348.230","APOAPSIS":"351.487","OBJECT_NAME":"STARLINK-3973","BSTAR":"0.00013195000000","TIME_SYSTEM":"UTC"},{"BSTAR":"-0.00040261000000","OBJECT_NAME":"STARLINK-3832","DECAY_DATE":null,"APOAPSIS":"351.352","PERIAPSIS":"348.249","TIME_SYSTEM":"UTC","EPHEMERIS_TYPE":"0","MEAN_ELEMENT_THEORY":"SGP4","SITE":"AFETR","ARG_OF_PERICENTER":"26.3220","COUNTRY_CODE":"US","CENTER_NAME":"EARTH","GP_ID":"206584784","MEAN_MOTION_DDOT":"0.0000000000000","REV_AT_EPOCH":"130","MEAN_MOTION_DOT":"-0.00056719","REF_FRAME":"TEME","TLE_LINE1":"1 52646U 22052BA  22172.91667824 -.00056719  00000-0 -40261-3 0  9997","CLASSIFICATION_TYPE":"U","LAUNCH_DATE":"2022-05-14","FILE":"3499203","OBJECT_ID":"2022-052BA","ECCENTRICITY":"0.00023060","PERIOD":"91.534","ELEMENT_SET_NO":"999","MEAN_MOTION":"15.73186009","TLE_LINE2":"2 52646  53.2131 251.1208 0002306  26.3220 313.2514 15.73186009  1308","MEAN_ANOMALY":"313.2514","EPOCH":"2022-06-21T22:00:00.999936","INCLINATION":"53.2131","RA_OF_ASC_NODE":"251.1208","OBJECT_TYPE":"PAYLOAD","RCS_SIZE":"LARGE","SEMIMAJOR_AXIS":"6727.935","NORAD_CAT_ID":"52646"},{"EPOCH":"2022-06-21T22:00:00.999936","MEAN_ANOMALY":"321.7994","SEMIMAJOR_AXIS":"6727.832","NORAD_CAT_ID":"52647","OBJECT_TYPE":"PAYLOAD","RCS_SIZE":"LARGE","INCLINATION":"53.2138","RA_OF_ASC_NODE":"251.1140","ELEMENT_SET_NO":"999","PERIOD":"91.532","MEAN_MOTION":"15.73222037","TLE_LINE2":"2 52647  53.2138 251.1140 0002340  20.7526 321.7994 15.73222037  1304","FILE":"3499203","LAUNCH_DATE":"2022-05-14","OBJECT_ID":"2022-052BB","ECCENTRICITY":"0.00023400","TLE_LINE1":"1 52647U 22052BB  22172.91667824 -.00046430  00000-0 -32785-3 0  9999","CLASSIFICATION_TYPE":"U","GP_ID":"206584528","CENTER_NAME":"EARTH","REF_FRAME":"TEME","REV_AT_EPOCH":"130","MEAN_MOTION_DOT":"-0.00046430","MEAN_MOTION_DDOT":"0.0000000000000","MEAN_ELEMENT_THEORY":"SGP4","EPHEMERIS_TYPE":"0","COUNTRY_CODE":"US","ARG_OF_PERICENTER":"20.7526","SITE":"AFETR","DECAY_DATE":null,"PERIAPSIS":"348.123","APOAPSIS":"351.272","OBJECT_NAME":"STARLINK-3846","BSTAR":"-0.00032785000000","TIME_SYSTEM":"UTC"},{"MEAN_ELEMENT_THEORY":"SGP4","EPHEMERIS_TYPE":"0","SITE":"AFETR","COUNTRY_CODE":"US","ARG_OF_PERICENTER":"25.1471","CENTER_NAME":"EARTH","GP_ID":"206584692","MEAN_MOTION_DOT":"-0.00111987","REV_AT_EPOCH":"130","MEAN_MOTION_DDOT":"0.0000000000000","REF_FRAME":"TEME","OBJECT_NAME":"STARLINK-3854","BSTAR":"-0.00080280000000","PERIAPSIS":"348.194","DECAY_DATE":null,"APOAPSIS":"351.123","TIME_SYSTEM":"UTC","PERIOD":"91.531","ELEMENT_SET_NO":"999","TLE_LINE2":"2 52648  53.2131 251.1199 0002177  25.1471 315.0146 15.73235631  1307","MEAN_MOTION":"15.73235631","EPOCH":"2022-06-21T22:00:00.999936","MEAN_ANOMALY":"315.0146","OBJECT_TYPE":"PAYLOAD","RCS_SIZE":"LARGE","RA_OF_ASC_NODE":"251.1199","INCLINATION":"53.2131","SEMIMAJOR_AXIS":"6727.794","NORAD_CAT_ID":"52648","TLE_LINE1":"1 52648U 22052BC  22172.91667824 -.00111987  00000-0 -80280-3 0  9993","CLASSIFICATION_TYPE":"U","LAUNCH_DATE":"2022-05-14","FILE":"3499203","OBJECT_ID":"2022-052BC","ECCENTRICITY":"0.00021770"},{"EPHEMERIS_TYPE":"0","MEAN_ELEMENT_THEORY":"SGP4","ARG_OF_PERICENTER":"13.5294","COUNTRY_CODE":"US","SITE":"AFETR","GP_ID":"206584975","CENTER_NAME":"EARTH","REF_FRAME":"TEME","MEAN_MOTION_DDOT":"0.0000000000000","REV_AT_EPOCH":"130","MEAN_MOTION_DOT":"-0.00027981","APOAPSIS":"351.597","DECAY_DATE":null,"PERIAPSIS":"347.998","BSTAR":"-0.00019567000000","OBJECT_NAME":"STARLINK-3868","TIME_SYSTEM":"UTC","ELEMENT_SET_NO":"999","PERIOD":"91.534","MEAN_MOTION":"15.73186844","TLE_LINE2":"2 52649  53.2136 251.1154 0002675  13.5294 328.4578 15.73186844  1309","MEAN_ANOMALY":"328.4578","EPOCH":"2022-06-21T22:00:00.999936","SEMIMAJOR_AXIS":"6727.933","NORAD_CAT_ID":"52649","INCLINATION":"53.2136","RA_OF_ASC_NODE":"251.1154","RCS_SIZE":"LARGE","OBJECT_TYPE":"PAYLOAD","TLE_LINE1":"1 52649U 22052BD  22172.91667824 -.00027981  00000-0 -19567-3 0  9994","CLASSIFICATION_TYPE":"U","FILE":"3499203","LAUNCH_DATE":"2022-05-14","OBJECT_ID":"2022-052BD","ECCENTRICITY":"0.00026750"},{"TLE_LINE1":"1 52650U 22052BE  22172.91667824 -.00014671  00000-0 -10025-3 0  9998","CLASSIFICATION_TYPE":"U","FILE":"3499203","LAUNCH_DATE":"2022-05-14","OBJECT_ID":"2022-052BE","ECCENTRICITY":"0.00023730","ELEMENT_SET_NO":"999","PERIOD":"91.533","MEAN_MOTION":"15.73204082","TLE_LINE2":"2 52650  53.2140 251.1135 0002373  20.5372 322.6382 15.73204082  1309","EPOCH":"2022-06-21T22:00:00.999936","MEAN_ANOMALY":"322.6382","NORAD_CAT_ID":"52650","SEMIMAJOR_AXIS":"6727.884","RCS_SIZE":"LARGE","OBJECT_TYPE":"PAYLOAD","RA_OF_ASC_NODE":"251.1135","INCLINATION":"53.2140","DECAY_DATE":null,"PERIAPSIS":"348.152","APOAPSIS":"351.345","OBJECT_NAME":"STARLINK-3891","BSTAR":"-0.00010025000000","TIME_SYSTEM":"UTC","MEAN_ELEMENT_THEORY":"SGP4","EPHEMERIS_TYPE":"0","COUNTRY_CODE":"US","ARG_OF_PERICENTER":"20.5372","SITE":"AFETR","GP_ID":"206584439","CENTER_NAME":"EARTH","REF_FRAME":"TEME","REV_AT_EPOCH":"130","MEAN_MOTION_DOT":"-0.00014671","MEAN_MOTION_DDOT":"0.0000000000000"},{"PERIAPSIS":"418.616","DECAY_DATE":null,"APOAPSIS":"420.289","BSTAR":"-0.01410800000000","OBJECT_NAME":"STARLINK-4004","TIME_SYSTEM":"UTC","EPHEMERIS_TYPE":"0","MEAN_ELEMENT_THEORY":"SGP4","ARG_OF_PERICENTER":"57.8657","COUNTRY_CODE":"US","SITE":"AFETR","GP_ID":"206584693","CENTER_NAME":"EARTH","REF_FRAME":"TEME","MEAN_MOTION_DDOT":"0.0000000000000","MEAN_MOTION_DOT":"-0.00720365","REV_AT_EPOCH":"130","TLE_LINE1":"1 52656U 22053A   22172.91667824 -.00720365  00000-0 -14108-1 0  9993","CLASSIFICATION_TYPE":"U","FILE":"3499203","LAUNCH_DATE":"2022-05-18","OBJECT_ID":"2022-053A","ECCENTRICITY":"0.00012310","ELEMENT_SET_NO":"999","PERIOD":"92.959","MEAN_MOTION":"15.49068203","TLE_LINE2":"2 52656  53.2176 128.7695 0001231  57.8657 309.0648 15.49068203  1305","MEAN_ANOMALY":"309.0648","EPOCH":"2022-06-21T22:00:00.999936","SEMIMAJOR_AXIS":"6797.588","NORAD_CAT_ID":"52656","INCLINATION":"53.2176","RA_OF_ASC_NODE":"128.7695","RCS_SIZE":"LARGE","OBJECT_TYPE":"PAYLOAD"}];
